OBJECT_NAME,OBJECT_ID,EPOCH,MEAN_MOTION,ECCENTRICITY,INCLINATION,RA_OF_ASC_NODE,ARG_OF_PERICENTER,MEAN_ANOMALY,EPHEMERIS_TYPE,CLASSIFICATION_TYPE,NORAD_CAT_ID,ELEMENT_SET_NO,REV_AT_EPOCH,BSTAR,MEAN_MOTION_DOT,MEAN_MOTION_DDOT
LEMUR-2-ROUNDTRIPPER,2025-009DG,2026-07-12T04:13:28.443360,15.04200239,.00043759,97.7248,275.8230,70.1877,289.9820,0,U,62711,999,8138,.3858306E-3,.5299E-4,0
LEMUR-2-MYNAMEISJEFF,2025-009DH,2026-07-12T04:11:16.161504,15.04192021,.00038031,97.7300,276.2178,104.0635,256.1013,0,U,62712,999,8138,.37556025E-3,.5155E-4,0
LEMUR-2-LEIA-PHILIP,2025-052AN,2026-07-12T03:06:32.558400,14.97388550,.00050923,97.6813,84.6578,126.2803,233.8890,0,U,63246,999,7240,.69493014E-4,.75E-5,0
LEMUR-2-LIA-MARTIN,2025-052AQ,2026-07-12T03:00:33.857568,14.98014688,.00054022,97.6876,85.1670,97.3721,262.8115,0,U,63248,999,7241,.2629632E-3,.3049E-4,0
LEMUR-2-DELOITTE-1,2025-052BB,2026-07-11T16:54:27.985248,14.97765900,.00025566,97.6886,85.0832,69.2852,290.8644,0,U,63259,999,7236,.19413927E-3,.222E-4,0
LEMUR-2-EMERSONROSE,2025-052BD,2026-07-12T04:32:41.063424,14.99273394,.00028094,97.6886,86.1670,65.5633,294.5883,0,U,63261,999,7248,.24432176E-3,.2923E-4,0
LEMUR-2-MARACHE-FRAN,2025-052BE,2026-07-12T03:32:18.348576,15.00303753,.00048452,97.6853,86.4899,266.1769,93.8900,0,U,63262,999,7250,.14976894E-3,.1818E-4,0
LEMUR-2-THEFALCONER,2025-052BG,2026-07-11T22:26:15.264096,14.97555399,.0000474,97.6847,84.9044,3.9992,356.1234,0,U,63264,999,7239,.13628E-3,.1533E-4,0
LEMUR-2-UNTITLED-SC,2025-061A,2026-07-11T21:07:57.540576,15.13633127,.00188645,97.5648,168.0663,174.3063,185.8386,0,U,63351,999,7132,.13422853E-3,.2354E-4,0
LEMUR-2-ESPERANZA,2025-061B,2026-07-11T20:32:46.534560,15.13740291,.00184794,97.5655,168.1412,173.5696,186.5776,0,U,63352,999,7132,.10385192E-3,.1811E-4,0
LEMUR-2-KREMPEL-BRO2,2025-061C,2026-07-12T00:11:46.355424,15.14166225,.00196594,97.5701,168.8574,165.9100,194.2684,0,U,63353,999,7136,.13500414E-3,.2405E-4,0
LEMUR-2-THERMORAPTOR,2025-061D,2026-07-11T22:08:52.093824,15.14249085,.0019427,97.5705,168.8529,165.0621,195.1189,0,U,63354,999,7135,.1107E-3,.1965E-4,0
LEMUR-2-NEUROSPICY,2025-061E,2026-07-11T19:50:11.235552,15.14366383,.00171151,97.5633,168.3643,168.1718,191.9919,0,U,63355,999,7134,.12870245E-3,.2301E-4,0
LEMUR-2-TILLINFINITY,2025-061F,2026-07-11T20:27:17.656416,15.14950710,.0018721,97.5619,168.6977,156.9449,203.2627,0,U,63356,999,7137,.1088E-3,.1969E-4,0
LEMUR-2-KREMPEL-BRO1,2025-061G,2026-07-12T03:49:15.597120,15.14758909,.00193426,97.5621,168.9121,157.2171,202.9923,0,U,63357,999,7141,.12459667E-3,.2253E-4,0
LEMUR-2-LANGER2SPACE,2025-061H,2026-07-11T11:08:03.117408,15.14450351,.00170352,97.5624,168.0248,167.8120,192.3528,0,U,63358,999,7129,.124128E-3,.2222E-4,0
LEMUR-2-BALTO,2025-052BH,2026-07-12T03:09:55.575072,15.00347181,.00052699,97.6934,86.4594,340.2877,19.8142,0,U,63395,999,7250,.24475167E-3,.3012E-4,0
LEMUR-2-KRISH,2025-135AK,2026-07-11T19:36:33.699744,14.96434298,.00016273,97.7770,307.5283,96.8966,263.2441,0,U,64561,999,5760,.23929928E-3,.2656E-4,0
LEMUR-2-HUBBLE-4,2025-135AP,2026-07-12T06:15:17.092800,14.93680043,.00024402,97.7716,306.8753,170.3654,189.7613,0,U,64565,999,5761,.11088004E-3,.1116E-4,0
LEMUR-2-SEJONG-2,2025-135BL,2026-07-12T07:22:09.639264,14.96898702,.00037288,97.7703,308.1612,232.5990,127.4892,0,U,64586,999,5770,.19491767E-3,.2178E-4,0
LEMUR-2-HUBBLE-5,2025-135BT,2026-07-12T06:29:30.088896,14.94208283,.00041925,97.7737,307.5509,247.2369,112.8409,0,U,64840,999,5765,.11092781E-3,.1131E-4,0
LEMUR-2-KARENDARRELL,2025-135BU,2026-07-12T06:17:38.358528,15.00473291,.00121076,97.7708,309.4353,113.3209,246.9290,0,U,64841,999,5777,.34583271E-3,.43E-4,0
LEMUR-2-LUCILLE-ROSE,2025-135BV,2026-07-11T20:03:12.003840,15.00464612,.00144668,97.7712,309.0456,199.4062,160.6612,0,U,65403,999,5233,.3073791E-3,.3816E-4,0
LEMUR-2-AFFIE-WAUWIE,2025-248C,2026-07-11T10:43:59.347488,15.28146061,.00086364,45.3896,343.4521,232.3245,127.6861,0,U,66295,999,3830,.45936216E-3,.12568E-3,0
OTTER SDM,2025-276N,2026-07-12T04:49:12.998496,15.20034932,.00042402,97.4210,266.2646,268.1515,91.9235,0,U,66678,999,3421,.1761888E-3,.3731E-4,0
LEMUR-2-STAS-GORBUK,2025-276W,2026-07-11T18:15:12.905856,15.19636638,.00034497,97.4242,265.8836,265.6939,94.3901,0,U,66686,999,3414,.1630158E-3,.3406E-4,0
LEMUR-2-TEODOR,2025-276DG,2026-07-12T04:15:59.835168,15.21316837,.00022716,97.4147,266.5619,90.4814,269.6682,0,U,66768,999,3424,.14077959E-3,.3081E-4,0
LEMUR-2-LAILA,2025-276DQ,2026-07-12T03:33:09.397152,15.21543038,.00029124,97.4171,266.6695,98.7962,261.3604,0,U,66776,999,3424,.16782051E-3,.3711E-4,0
LEMUR-2-CELIJO-SB-PK,2025-276DW,2026-07-11T17:12:00.870336,15.00264436,.00071702,97.5201,262.6848,72.7067,287.4941,0,U,66781,999,2630,.27783604E-3,.3423E-4,0
LEMUR-2-FINNIAN,2025-276DX,2026-07-12T00:30:26.735328,15.00597128,.00076527,97.5365,263.2359,11.2352,348.9042,0,U,66782,999,2372,.14434302E-3,.1766E-4,0
